{
  "type": "FeatureCollection",
  "features": [
    {
      "type": "Feature",
      "properties": {
        "norad_id": 35462,
        "name": "COSMOS 2251 DEB",
        "group": "cosmos-2251-debris",
        "lat": 3.692312933762993,
        "lon": 64.61609193222019,
        "alt_km": 808.3967491434751,
        "timestamp": "2025-12-25T09:48:52.685293+00:00",
        "meta_object_name": "COSMOS 2251 DEB",
        "meta_object_id": "1993-036ALG",
        "meta_epoch": "2025-12-24T22:54:22.815936",
        "meta_mean_motion": 14.29379641,
        "meta_eccentricity": 0.0086649,
        "meta_inclination": 74.0358,
        "meta_ra_of_asc_node": 246.4998,
        "meta_arg_of_pericenter": 279.062,
        "meta_mean_anomaly": 80.0732,
        "meta_ephemeris_type": 0,
        "meta_classification_type": "U",
        "meta_norad_cat_id": 35462,
        "meta_element_set_no": 999,
        "meta_rev_at_epoch": 66555,
        "meta_bstar": 0.0013247,
        "meta_mean_motion_dot": 3.491e-05,
        "meta_mean_motion_ddot": 0,
        "tle_line1": "1 35462U 93036ALG 25358.95443074  .00003491  00000+0  13247-2 0  9995",
        "tle_line2": "2 35462  74.0358 246.4998 0086649 279.0620  80.0732 14.29379641665553"
      },
      "geometry": {
        "type": "Point",
        "coordinates": [
          64.61609193222019,
          3.692312933762993
        ]
      }
    },
    {
      "type": "Feature",
      "properties": {
        "norad_id": 35465,
        "name": "COSMOS 2251 DEB",
        "group": "cosmos-2251-debris",
        "lat": -18.12690977176087,
        "lon": -1.2110953157547462,
        "alt_km": 779.4598175020838,
        "timestamp": "2025-12-25T09:48:52.685303+00:00",
        "meta_object_name": "COSMOS 2251 DEB",
        "meta_object_id": "1993-036ALK",
        "meta_epoch": "2025-12-23T05:21:40.851936",
        "meta_mean_motion": 14.44343886,
        "meta_eccentricity": 0.00645011,
        "meta_inclination": 73.9972,
        "meta_ra_of_asc_node": 177.4731,
        "meta_arg_of_pericenter": 335.4735,
        "meta_mean_anomaly": 24.3357,
        "meta_ephemeris_type": 0,
        "meta_classification_type": "U",
        "meta_norad_cat_id": 35465,
        "meta_element_set_no": 999,
        "meta_rev_at_epoch": 87393,
        "meta_bstar": 0.00030952177,
        "meta_mean_motion_dot": 1.064e-05,
        "meta_mean_motion_ddot": 0,
        "tle_line1": "1 35465U 93036ALK 25357.22338949  .00001064  00000+0  30952-3 0  9998",
        "tle_line2": "2 35465  73.9972 177.4731 0064501 335.4735  24.3357 14.44343886873937"
      },
      "geometry": {
        "type": "Point",
        "coordinates": [
          -1.2110953157547462,
          -18.12690977176087
        ]
      }
    },
    {
      "type": "Feature",
      "properties": {
        "norad_id": 35469,
        "name": "COSMOS 2251 DEB",
        "group": "cosmos-2251-debris",
        "lat": -67.35046792174366,
        "lon": -43.32708289496301,
        "alt_km": 770.6200800848701,
        "timestamp": "2025-12-25T09:48:52.685313+00:00",
        "meta_object_name": "COSMOS 2251 DEB",
        "meta_object_id": "1993-036ALP",
        "meta_epoch": "2025-12-23T16:45:28.013760",
        "meta_mean_motion": 14.49828285,
        "meta_eccentricity": 0.00764244,
        "meta_inclination": 74.0168,
        "meta_ra_of_asc_node": 3.2705,
        "meta_arg_of_pericenter": 155.9037,
        "meta_mean_anomaly": 204.5731,
        "meta_ephemeris_type": 0,
        "meta_classification_type": "U",
        "meta_norad_cat_id": 35469,
        "meta_element_set_no": 999,
        "meta_rev_at_epoch": 88270,
        "meta_bstar": 8.2225084e-05,
        "meta_mean_motion_dot": 3e-06,
        "meta_mean_motion_ddot": 0,
        "tle_line1": "1 35469U 93036ALP 25357.69824090  .00000300  00000+0  82225-4 0  9993",
        "tle_line2": "2 35469  74.0168   3.2705 0076424 155.9037 204.5731 14.49828285882703"
      },
      "geometry": {
        "type": "Point",
        "coordinates": [
          -43.32708289496301,
          -67.35046792174366
        ]
      }
    },
    {
      "type": "Feature",
      "properties": {
        "norad_id": 35475,
        "name": "COSMOS 2251 DEB",
        "group": "cosmos-2251-debris",
        "lat": -26.873798837807588,
        "lon": 132.69836575528203,
        "alt_km": 673.0961013730912,
        "timestamp": "2025-12-25T09:48:52.685323+00:00",
        "meta_object_name": "COSMOS 2251 DEB",
        "meta_object_id": "1993-036ALV",
        "meta_epoch": "2025-12-24T15:58:31.837728",
        "meta_mean_motion": 14.69981739,
        "meta_eccentricity": 0.00200174,
        "meta_inclination": 74.0221,
        "meta_ra_of_asc_node": 142.4886,
        "meta_arg_of_pericenter": 215.4877,
        "meta_mean_anomaly": 144.4964,
        "meta_ephemeris_type": 0,
        "meta_classification_type": "U",
        "meta_norad_cat_id": 35475,
        "meta_element_set_no": 999,
        "meta_rev_at_epoch": 65792,
        "meta_bstar": 0.0021631637,
        "meta_mean_motion_dot": 0.00013001,
        "meta_mean_motion_ddot": 0,
        "tle_line1": "1 35475U 93036ALV 25358.66564627  .00013001  00000+0  21632-2 0  9990",
        "tle_line2": "2 35475  74.0221 142.4886 0020017 215.4877 144.4964 14.69981739657927"
      },
      "geometry": {
        "type": "Point",
        "coordinates": [
          132.69836575528203,
          -26.873798837807588
        ]
      }
    },
    {
      "type": "Feature",
      "properties": {
        "norad_id": 35476,
        "name": "COSMOS 2251 DEB",
        "group": "cosmos-2251-debris",
        "lat": 73.93408245740852,
        "lon": 122.2409630366469,
        "alt_km": 631.7505359314546,
        "timestamp": "2025-12-25T09:48:52.685332+00:00",
        "meta_object_name": "COSMOS 2251 DEB",
        "meta_object_id": "1993-036ALW",
        "meta_epoch": "2025-12-24T22:18:15.071040",
        "meta_mean_motion": 14.75917923,
        "meta_eccentricity": 0.0018458,
        "meta_inclination": 73.9777,
        "meta_ra_of_asc_node": 36.9779,
        "meta_arg_of_pericenter": 13.4242,
        "meta_mean_anomaly": 48.0996,
        "meta_ephemeris_type": 0,
        "meta_classification_type": "U",
        "meta_norad_cat_id": 35476,
        "meta_element_set_no": 999,
        "meta_rev_at_epoch": 88067,
        "meta_bstar": 0.0016886,
        "meta_mean_motion_dot": 0.00011625,
        "meta_mean_motion_ddot": 0,
        "tle_line1": "1 35476U 93036ALW 25358.92934110  .00011625  00000+0  16886-2 0  9993",
        "tle_line2": "2 35476  73.9777  36.9779 0018458  13.4242  48.0996 14.75917923880673"
      },
      "geometry": {
        "type": "Point",
        "coordinates": [
          122.2409630366469,
          73.93408245740852
        ]
      }
    },
    {
      "type": "Feature",
      "properties": {
        "norad_id": 35580,
        "name": "COSMOS 2251 DEB",
        "group": "cosmos-2251-debris",
        "lat": -36.56983953428158,
        "lon": 144.8065572600112,
        "alt_km": 1150.7771942907784,
        "timestamp": "2025-12-25T09:48:52.685342+00:00",
        "meta_object_name": "COSMOS 2251 DEB",
        "meta_object_id": "1993-036ALX",
        "meta_epoch": "2025-12-22T19:33:13.925664",
        "meta_mean_motion": 13.83921158,
        "meta_eccentricity": 0.0280776,
        "meta_inclination": 73.9007,
        "meta_ra_of_asc_node": 161.5885,
        "meta_arg_of_pericenter": 164.8747,
        "meta_mean_anomaly": 196.0996,
        "meta_ephemeris_type": 0,
        "meta_classification_type": "U",
        "meta_norad_cat_id": 35580,
        "meta_element_set_no": 999,
        "meta_rev_at_epoch": 62396,
        "meta_bstar": 0.0019852622,
        "meta_mean_motion_dot": 2.966e-05,
        "meta_mean_motion_ddot": 0,
        "tle_line1": "1 35580U 93036ALX 25356.81474451  .00002966  00000+0  19853-2 0  9997",
        "tle_line2": "2 35580  73.9007 161.5885 0280776 164.8747 196.0996 13.83921158623967"
      },
      "geometry": {
        "type": "Point",
        "coordinates": [
          144.8065572600112,
          -36.56983953428158
        ]
      }
    },
    {
      "type": "Feature",
      "properties": {
        "norad_id": 35583,
        "name": "COSMOS 2251 DEB",
        "group": "cosmos-2251-debris",
        "lat": 27.125218467094257,
        "lon": 2.984471041184691,
        "alt_km": 908.0251812568958,
        "timestamp": "2025-12-25T09:48:52.685352+00:00",
        "meta_object_name": "COSMOS 2251 DEB",
        "meta_object_id": "1993-036AMA",
        "meta_epoch": "2025-12-23T19:50:15.801792",
        "meta_mean_motion": 13.55354425,
        "meta_eccentricity": 0.03849784,
        "meta_inclination": 73.9157,
        "meta_ra_of_asc_node": 194.0477,
        "meta_arg_of_pericenter": 216.3569,
        "meta_mean_anomaly": 141.0826,
        "meta_ephemeris_type": 0,
        "meta_classification_type": "U",
        "meta_norad_cat_id": 35583,
        "meta_element_set_no": 999,
        "meta_rev_at_epoch": 82562,
        "meta_bstar": 0.00078625408,
        "meta_mean_motion_dot": 8.53e-06,
        "meta_mean_motion_ddot": 0,
        "tle_line1": "1 35583U 93036AMA 25357.82657178  .00000853  00000+0  78625-3 0  9997",
        "tle_line2": "2 35583  73.9157 194.0477 0384978 216.3569 141.0826 13.55354425825623"
      },
      "geometry": {
        "type": "Point",
        "coordinates": [
          2.984471041184691,
          27.125218467094257
        ]
      }
    }
  ]
}